HOTSAT-1
1 56954U 23084Y   25233.60366539  .00003750  00000+0  16832-3 0  9996
2 56954  97.5855 359.6539 0006110   4.6567 355.4724 15.21802090121525
