[
  {
    "OBJECT_NAME": "HOTSAT-1",
    "OBJECT_ID": "2023-084Y",
    "EPOCH": "2025-08-21T14:29:16.689696",
    "MEAN_MOTION": 15.2180209,
    "ECCENTRICITY": 0.00061102,
    "INCLINATION": 97.5855,
    "RA_OF_ASC_NODE": 359.6539,
    "ARG_OF_PERICENTER": 4.6567,
    "MEAN_ANOMALY": 355.4724,
    "EPHEMERIS_TYPE": 0,
    "CLASSIFICATION_TYPE": "U",
    "NORAD_CAT_ID": 56954,
    "ELEMENT_SET_NO": 999,
    "REV_AT_EPOCH": 12152,
    "BSTAR": 0.00016831904,
    "MEAN_MOTION_DOT": 0.0000375,
    "MEAN_MOTION_DDOT": 0
  }
]
